IRIDIUM 106             
1 41917U 17003A   25183.62497955  .00000003  00000+0 -59416-5 0  9992
2 41917  86.3967 234.5516 0001911  81.6720 278.4692 14.34217439443103
IRIDIUM 103             
1 41918U 17003B   25183.61229633 -.00000005  00000+0 -89249-5 0  9998
2 41918  86.3966 234.4575 0002717  85.0527 275.0979 14.34217311443127
IRIDIUM 109             
1 41919U 17003C   25183.61863788 -.00000009  00000+0 -10271-4 0  9996
2 41919  86.3967 234.5086 0002395  94.2194 265.9276 14.34217379443099
IRIDIUM 102             
1 41920U 17003D   25183.58692391  .00000056  00000+0  12984-4 0  9997
2 41920  86.3962 234.4530 0002329  96.6201 263.5260 14.34217338443172
IRIDIUM 105             
1 41921U 17003E   25183.55765638  .00000167  00000+0  52404-4 0  9994
2 41921  86.3989 202.9368 0002612  89.9153 270.2342 14.34213508445024
IRIDIUM 104             
1 41922U 17003F   25183.59961056  .00000017  00000+0 -85414-6 0  9995
2 41922  86.3968 234.4850 0002648  95.0821 265.0677 14.34217594443162
IRIDIUM 114             
1 41923U 17003G   25183.60595230  .00000014  00000+0 -20620-5 0  9999
2 41923  86.3967 234.4667 0002400  87.4048 272.7423 14.34217640443144
IRIDIUM 108             
1 41924U 17003H   25183.56447270 -.00000047  00000+0 -23893-4 0  9996
2 41924  86.3984 202.8341 0001991  89.8605 270.2819 14.34217224444995
